LYNK TOWER 4            
1 55034U 23001AB  26068.67743801  .00009160  00000+0  30014-3 0  9997
2 55034  97.3324 128.5940 0010321 112.3386 247.8950 15.31819885176588
STARLINK-31349          
1 59317U 24056X   26068.48338253 -.00000207  00000+0  20049-5 0  9999
2 59317  42.9995 231.7936 0001108 266.9092  93.1633 15.27574483111194
